STARLINK-30476          
1 57930U 23147T   24007.58334491 -.00364394  00000+0 -26819-1 0  9998
2 57930  43.0005 297.0155 0001396 267.9897  49.9533 15.04656371 17564
STARLINK-30488          
1 57931U 23147U   24007.27047373  .00013377  00000+0  69508-3 0  9999
2 57931  43.0018 316.3982 0000981 257.5717 102.5020 15.15972047 17365
STARLINK-30471          
1 57932U 23147V   24007.25225558  .00006213  00000+0  32948-3 0  9990
2 57932  43.0009 316.2589 0000763 205.1203 154.9607 15.15972022 17337
STARLINK-30461          
1 57933U 23147W   24007.29682142  .00032030  00000+0  16819-2 0  9995
2 57933  43.0020 316.5930 0001033 267.1624  92.9105 15.15157662 17339
STARLINK-30458          
1 57934U 23147X   24007.26364031  .00006528  00000+0  34573-3 0  9998
2 57934  43.0021 316.3460 0001336 260.3887  99.6809 15.15960241 17339
STARLINK-30712          
1 57935U 23148A   24007.53369839  .00007049  00000+0  35009-3 0  9995
2 57935  53.0569  97.4411 0001500  99.3033 260.8131 15.18733281 17242
STARLINK-30716          
1 57936U 23148B   24007.52900872  .00002552  00000+0  13649-3 0  9993
2 57936  53.0570  97.4111 0001394  98.6423 261.4729 15.18733553 17240
STARLINK-30400          
1 57937U 23148C   24007.55895562 -.00000167  00000+0  71902-5 0  9995
2 57937  53.0554  96.8884 0001742  67.3175 292.8003 15.18725129 17251
STARLINK-30710          
1 57938U 23148D   24007.49722527 -.00001700  00000+0 -65754-4 0  9991
2 57938  53.0542  90.7577 0001921  63.4743 296.6448 15.18719456 17338
STARLINK-30714          
1 57939U 23148E   24007.52862977  .00016840  00000+0  81424-3 0  9990
2 57939  53.0563  97.4077 0001502 101.8598 258.2565 15.18735300 17241
STARLINK-30711          
1 57940U 23148F   24007.52394810  .00004924  00000+0  24926-3 0  9992
2 57940  53.0552  97.3791 0001611  95.4306 264.6873 15.18727746 17247
STARLINK-30715          
1 57941U 23148G   24007.52356171  .00002591  00000+0  13839-3 0  9990
2 57941  53.0541  97.3765 0001335  89.8555 270.2593 15.18715335 17246
STARLINK-30455          
1 57942U 23148H   24007.51888243  .00021913  00000+0  10543-2 0  9997
2 57942  53.0531  97.3482 0001927  85.2451 274.8763 15.18733996 17246
STARLINK-30456          
1 57943U 23148J   24007.51849564  .00015917  00000+0  77063-3 0  9999
2 57943  53.0528  97.3463 0001565  82.5361 277.5811 15.18732194 17243
STARLINK-30708          
1 57944U 23148K   24007.51381338  .00015174  00000+0  73554-3 0  9996
2 57944  53.0530  97.3178 0001565  79.1004 281.0167 15.18726095 17243
STARLINK-30705          
1 57945U 23148L   24007.51341956  .00025927  00000+0  12437-2 0  9998
2 57945  53.0532  97.3155 0001413  82.4929 277.6225 15.18741464 17249
STARLINK-30704          
1 57946U 23148M   24007.51262749  .00009380  00000+0  46072-3 0  9999
2 57946  53.0576  92.3541 0001475  86.6271 273.4893 15.18733164 17317
STARLINK-30706          
1 57947U 23148N   24007.50835313  .00007258  00000+0  35998-3 0  9999
2 57947  53.0532  97.2826 0001427 101.9208 258.1946 15.18737812 17243
STARLINK-30709          
1 57948U 23148P   24007.55427677  .00024644  00000+0  11834-2 0  9995
2 57948  53.0527  96.8619 0001524  74.2704 285.8458 15.18733299 17255
STARLINK-30707          
1 57949U 23148Q   24007.56909720  .00021123  00000+0  10168-2 0  9999
2 57949  53.0529  96.9530 0001901  55.4054 304.7119 15.18738583 17255
STARLINK-30701          
1 57950U 23148R   24007.49860818  .00003209  00000+0  16779-3 0  9997
2 57950  53.0550  97.2281 0001579  87.1192 272.9983 15.18718544 17243
STARLINK-30399          
1 57951U 23148S   24007.56402832  .00019453  00000+0  93782-3 0  9991
2 57951  53.0525  96.9211 0001521  69.3372 290.7785 15.18738145 17252
STARLINK-30713          
1 57952U 23148T   24007.55934374  .00005238  00000+0  26417-3 0  9999
2 57952  53.0541  96.8913 0001916  64.8001 295.3192 15.18726203 17251
STARLINK-30700          
1 57953U 23148U   24007.49629880  .00005460  00000+0  27470-3 0  9993
2 57953  53.0546  87.7932 0001519  87.4094 272.7075 15.18729086 17373
STARLINK-30703          
1 57954U 23148V   24007.49122163  .00003300  00000+0  17205-3 0  9992
2 57954  53.0542  87.7634 0001313  88.2225 271.8920 15.18730952 17379
STARLINK-30702          
1 57955U 23148W   24007.49590831  .00001592  00000+0  90850-4 0  9993
2 57955  53.0551  87.7924 0001458  93.0132 267.1030 15.18725810 17370
STARLINK-30396          
1 57964U 23151A   24007.25915767  .00021363  00000+0  11280-2 0  9996
2 57964  43.0032 330.3862 0000794 212.4792 147.6006 15.15140419 16469
STARLINK-30524          
1 57965U 23151B   24007.34639908  .00036467  00000+0  18676-2 0  9994
2 57965  43.0044 329.3362 0000542 241.0805 118.9988 15.15986403 16483
STARLINK-30521          
1 57966U 23151C   24007.34183016  .00041163  00000+0  21032-2 0  9998
2 57966  43.0024 329.2910 0000345 285.8716  74.2093 15.16019613 16480
STARLINK-30528          
1 57967U 23151D   24007.33956604  .00031093  00000+0  15952-2 0  9994
2 57967  43.0031 329.2759 0000473 141.3144 218.7737 15.15988981 16485
STARLINK-30495          
1 57968U 23151E   24007.28279178  .00026136  00000+0  13435-2 0  9999
2 57968  43.0029 329.7053 0000337 233.6639 126.4178 15.15993678 16470
STARLINK-30484          
1 57969U 23151F   24007.27822701  .00000338  00000+0  29180-4 0  9997
2 57969  43.0032 329.6714 0000336 166.2528 193.8329 15.15965874 16478
STARLINK-30494          
1 57970U 23151G   24007.24180888  .00007845  00000+0  41298-3 0  9992
2 57970  43.0034 329.3958 0000610 255.5805 104.4974 15.15961381 16477
STARLINK-30498          
1 57971U 23151H   24007.30540993  .00028025  00000+0  14400-2 0  9994
2 57971  43.0034 329.0140 0001138 230.1409 129.9338 15.15978351 16485
STARLINK-30505          
1 57972U 23151J   24007.25090932  .00001001  00000+0  63109-4 0  9999
2 57972  43.0025 329.4655 0000537 227.0689 133.0113 15.15965297 16479
STARLINK-30502          
1 57973U 23151K   24007.28637251  .00011724  00000+0  62511-3 0  9992
2 57973  43.0031 329.7269 0000912 266.8316  93.2426 15.15150622 16478
STARLINK-30489          
1 57974U 23151L   24007.37583813  .00043245  00000+0  22083-2 0  9999
2 57974  43.0038 328.6849 0000377 289.3134  70.7672 15.16020825 16498
STARLINK-30503          
1 57975U 23151M   24007.28214603  .00016538  00000+0  85626-3 0  9996
2 57975  43.0020 327.9730 0001002 253.5207 106.5530 15.15966135 16494
STARLINK-30512          
1 57976U 23151N   24007.27718046  .00008286  00000+0  43541-3 0  9997
2 57976  43.0027 325.3608 0001058 265.0487  95.0239 15.15970135 16524
STARLINK-30509          
1 57977U 23151P   24007.32542932  .00000944  00000+0  84888-4 0  9996
2 57977  43.0048 337.6594 0000854 264.8592  95.2153 15.02543468 16387
STARLINK-30511          
1 57978U 23151Q   24007.38525560  .00013322  00000+0  99907-3 0  9992
2 57978  43.0042 337.2488 0000690 228.6180 131.4603 15.02546488 16398
STARLINK-30508          
1 57979U 23151R   24007.38192130  .00019963  00000+0  14879-2 0  9997
2 57979  43.0040 337.2241 0000773 243.7593 116.3170 15.02555012 16396
STARLINK-30504          
1 57980U 23151S   24007.25560902 -.00014642  00000+0 -10719-2 0  9991
2 57980  43.0038 337.9956 0001452 281.0734  78.9945 15.02506548 16373
STARLINK-30510          
1 57981U 23151T   24007.37859410  .00019383  00000+0  14456-2 0  9997
2 57981  43.0040 337.1998 0000943 256.3848 103.6889 15.02546049 16395
STARLINK-30507          
1 57982U 23151U   24007.30879431  .00003220  00000+0  25339-3 0  9992
2 57982  43.0052 337.5334 0001132 274.8208  85.2505 15.02527136 16388
STARLINK-30515          
1 57983U 23151V   24007.37193226  .00011348  00000+0  85345-3 0  9994
2 57983  43.0039 337.1484 0000738 262.6889  97.3869 15.02551264 16394
STARLINK-30516          
1 57984U 23151W   24007.30210973 -.00009342  00000+0 -67653-3 0  9992
2 57984  43.0046 337.4836 0000946 243.1238 116.9508 15.02584384 16386
STARLINK-30519          
1 57985U 23151X   24007.29879592  .00001453  00000+0  12254-3 0  9999
2 57985  43.0051 337.4593 0000502 190.8311 169.2520 15.02543973 16329
STARLINK-30537          
1 57991U 23153A   24007.54568822  .00034197  00000+0  17527-2 0  9995
2 57991  43.0036  55.8977 0001082 278.2863  81.7862 15.15984829 15580
STARLINK-30534          
1 57992U 23153B   24007.55706297  .00042414  00000+0  21671-2 0  9993
2 57992  43.0019  55.9773 0001146 285.2601  74.8120 15.16008580 15588
STARLINK-30536          
1 57993U 23153C   24007.51992560  .00015216  00000+0  80713-3 0  9993
2 57993  43.0016  56.5528 0001168 271.4564  88.6150 15.15160096 15676
STARLINK-30538          
1 57994U 23153D   24007.48435007  .00003114  00000+0  17114-3 0  9997
2 57994  43.0016  56.2892 0001243 261.6355  98.4352 15.15972552 15571
STARLINK-30517          
1 57995U 23153E   24007.54796230  .00033631  00000+0  17240-2 0  9999
2 57995  43.0027  55.9082 0001214 282.7592  77.3119 15.15985910 15687
STARLINK-30543          
1 57996U 23153F   24007.46244073  .00051324  00000+0  23699-3 0  9999
2 57996  42.9777  10.1887 0001288 308.4720  51.6036 15.82711144 16194
STARLINK-30523          
1 57997U 23153G   24007.51764860  .00005303  00000+0  28952-3 0  9990
2 57997  43.0015  56.5348 0000995 276.1896  83.8838 15.15160359 15678
STARLINK-30531          
1 57998U 23153H   24007.50626881  .00001241  00000+0  77052-4 0  9993
2 57998  43.0018  56.4478 0000880 263.1863  96.8884 15.15150350 15673
STARLINK-30552          
1 57999U 23153J   24007.50877454  .00033345  00000+0  17483-2 0  9998
2 57999  43.0014  56.4685 0001110 259.3579 100.7143 15.15194311 15676
STARLINK-30545          
1 58000U 23153K   24007.53885372  .00011913  00000+0  62031-3 0  9990
2 58000  43.0019  55.8368 0000960 251.5015 108.5728 15.15977972 15685
STARLINK-30535          
1 58001U 23153L   24007.53657642  .00035967  00000+0  18403-2 0  9996
2 58001  43.0024  55.8213 0001106 249.6052 110.4677 15.16024637 15680
